[{"OBJECT_NAME":"STARLINK-6282","OBJECT_ID":"2023-061AK","EPOCH":"2026-03-08T16:41:52.640160","MEAN_MOTION":15.02535676,"ECCENTRICITY":0.00011794,"INCLINATION":43.0029,"RA_OF_ASC_NODE":189.9984,"ARG_OF_PERICENTER":268.4927,"MEAN_ANOMALY":91.5781,"EPHEMERIS_TYPE":0,"CLASSIFICATION_TYPE":"U","NORAD_CAT_ID":56407,"ELEMENT_SET_NO":999,"REV_AT_EPOCH":15675,"BSTAR":-1.7852895e-5,"MEAN_MOTION_DOT":-4.45e-6,"MEAN_MOTION_DDOT":0},{"OBJECT_NAME":"HELIOS 2A","OBJECT_ID":"2004-049A","EPOCH":"2026-03-09T21:12:23.746752","MEAN_MOTION":15.02457036,"ECCENTRICITY":0.00022964,"INCLINATION":98.268,"RA_OF_ASC_NODE":116.0483,"ARG_OF_PERICENTER":298.4853,"MEAN_ANOMALY":61.6139,"EPHEMERIS_TYPE":0,"CLASSIFICATION_TYPE":"U","NORAD_CAT_ID":28492,"ELEMENT_SET_NO":999,"REV_AT_EPOCH":13885,"BSTAR":0.0002328623,"MEAN_MOTION_DOT":3.02e-5,"MEAN_MOTION_DDOT":0}]
